# From MPC 89312
C/2014 F3 (Sheppard-Trujillo),e,6.4824,327.5481,1.3585,16.09079,0.0152700,0.64482690,325.5138,03/04.0/2015,2000,g  6.0,4.0
# From MPC 90272
C/2014 G1 (PANSTARRS),e,165.6385,337.9488,77.0467,860.5677,0.0000390,0.99364602,0.0000,11/06.3640/2013,2000,g  9.0,4.0
# From MPEC 2015-E14
C/2014 G3 (PANSTARRS),e,155.8228,4.5454,147.8098,55.50936,0.0023832,0.91536527,0.0700,03/04.0/2015,2000,g  9.0,4.0
# From MPC 88697
C/2014 H1 (Christensen),e,99.9308,34.6996,169.1908,136.5317,0.0006178,0.98433344,0.0000,04/15.3252/2014,2000,g 14.5,4.0
# From MPC 89010
C/2014 J1 (Catalina),e,159.6967,41.9742,195.4972,8.663376,0.0386521,0.80281620,9.9331,03/04.0/2015,2000,g 17.0,4.0
# From MPEC 2015-E14
P/2014 L2 (NEOWISE),e,5.1845,149.4071,182.7675,6.322837,0.0619921,0.64660278,14.3582,03/04.0/2015,2000,g 12.0,4.0
# From MPC 90769
P/2014 L3 (Hill),e,6.2640,115.5654,178.5989,8.166062,0.0422362,0.77298840,10.4936,03/04.0/2015,2000,g 16.0,4.0
# From MPC 91614
C/2014 L5 (Lemmon),h,11/26.3372/2014,122.8102,35.6899,45.6110,1.002850,6.203196,2000,8.0,4.0
# From MPC 89010
C/2014 M1 (PANSTARRS),e,160.1581,234.8117,337.5160,1005,0.0000309,0.99447602,0.0000,08/31.9795/2015,2000,g  9.0,4.0
# From MPC 90272
C/2014 M2 (Christensen),e,32.4033,245.3209,40.7048,992.9878,0.0000315,0.99304263,0.0000,07/17.9444/2014,2000,g  6.0,4.0
# From MPC 90769
C/2014 M3 (Catalina),e,164.9086,80.3709,93.7356,138.3812,0.0006055,0.98241017,0.0000,06/21.9192/2014,2000,g 14.0,4.0
# From MPC 91614
P/2014 M4 (PANSTARRS),e,3.3453,265.0549,145.3059,5.812597,0.0703313,0.59550110,4.6658,03/04.0/2015,2000,g 15.0,4.0
# From MPC 91614
P/2014 MG4 (Spacewatch-PANSTARRS),e,9.3683,311.8542,298.7882,5.011854,0.0878429,0.25904601,55.2451,03/04.0/2015,2000,g  9.5,4.0
# From MPC 90769
C/2014 N2 (PANSTARRS),e,133.0134,143.8053,237.8598,3432,0.0000049,0.99936357,0.0000,10/08.2226/2014,2000,g 14.5,4.0
# From MPC 92274
C/2014 N3 (NEOWISE),e,61.6351,19.9268,353.5716,6902,0.0000017,0.99943752,0.0000,03/13.2361/2015,2000,g  7.0,4.0
# From MPC 90770
P/2014 O3 (PANSTARRS),e,7.8069,87.7022,204.4242,7.543859,0.0475679,0.38473572,15.2208,03/04.0/2015,2000,g 10.5,4.0
# From MPEC 2015-E14
C/2014 OE4 (PANSTARRS),e,81.3711,240.4152,65.7098,10981,0.0000009,0.99943132,0.0000,12/10.3711/2016,2000,g 11.0,2.0
# From MPEC 2015-E14
C/2014 Q1 (PANSTARRS),e,43.1059,8.7634,120.0503,1091,0.0000273,0.99971170,0.0000,07/06.5127/2015,2000,g  8.0,4.0
# From MPEC 2015-E14
C/2014 Q2 (Lovejoy),e,80.3016,94.9754,12.3954,583.2058,0.0000700,0.99778748,0.0000,01/30.0696/2015,2000,g  2.7,10.0
# From MPC 90770
C/2014 QU2 (PANSTARRS),e,124.8173,333.0004,320.4600,247.5115,0.0002531,0.99101822,0.0000,07/09.8889/2014,2000,g 15.0,4.0
# From MPC 92274
C/2014 Q3 (Borisov),e,89.9487,63.1296,47.3842,28.42604,0.0065032,0.94204519,0.6824,03/04.0/2015,2000,g -0.5,20.0
# From MPC 91615
C/2014 Q6 (PANSTARRS),e,49.7989,326.6552,2.5373,11665,0.0000008,0.99963800,0.0000,01/06.3975/2015,2000,g  9.5,4.0
# From MPC 92274
C/2014 R1 (Borisov),e,9.9331,104.0538,55.6491,180.5814,0.0004062,0.99254933,0.0000,11/19.2416/2014,2000,g  6.5,8.8
# From MPC 90770
C/2014 R3 (PANSTARRS),h,08/06.9651/2016,90.8302,334.0994,113.3480,1.001147,7.275316,2000,6.5,4.0
# From MPEC 2015-E14
C/2014 R4 (Gibbs),e,42.4084,279.5264,180.8352,2990,0.0000060,0.99939208,0.0000,10/21.5001/2014,2000,g 13.0,4.0
# From MPC 91615
P/2014 R5 (Lemmon-PANSTARRS),e,1.0882,126.5414,213.8371,4.062912,0.1203505,0.41269532,31.2379,03/04.0/2015,2000,g 15.0,4.0
# From MPC 92274
C/2014 S1 (PANSTARRS),h,10/30.8642/2013,123.8072,352.6566,288.8546,1.001579,8.138345,2000,7.0,4.0
# From MPC 92274
C/2014 S2 (PANSTARRS),e,64.6666,8.1213,87.8012,172.2451,0.0004360,0.98780401,0.0000,12/09.7711/2015,2000,g 10.0,4.0
# From MPC 90770
C/2014 S3 (PANSTARRS),e,169.3208,356.0522,293.1477,87.89850,0.0011960,0.97668565,0.0000,08/13.3320/2014,2000,g 17.0,4.0
# From MPC 91615
C/2014 TG64 (Catalina),e,22.2840,50.2889,294.7720,14.87402,0.0171815,0.78223851,4.8456,03/04.0/2015,2000,g 13.0,4.0
# From MPC 92274
P/2014 U2 (Kowalski),e,7.4957,356.1767,35.2654,2.932954,0.1962213,0.60301109,29.0091,03/04.0/2015,2000,g 19.5,4.0
# From MPC 91616
C/2014 U3 (Kowalski),e,152.9931,163.5819,51.3048,746.5940,0.0000483,0.99657320,0.0000,09/03.4975/2014,2000,g 14.5,4.0
# From MPC 91616
P/2014 U4 (PANSTARRS),e,6.4568,12.0442,347.7358,3.484804,0.1515084,0.47099281,32.1302,03/04.0/2015,2000,g 18.0,4.0
# From MPC 91616
P/2014 V1 (PANSTARRS),e,22.4582,166.5071,178.9524,4.811113,0.0933976,0.47215354,3.5404,03/04.0/2015,2000,g 14.0,4.0
# From MPC 91616
P/2014 W1 (PANSTARRS),e,8.8467,247.2556,150.3325,4.412376,0.1063397,0.39546356,22.9009,03/04.0/2015,2000,g 15.5,4.0
# From MPEC 2015-E14
C/2014 W2 (PANSTARRS),e,81.9955,69.9610,85.0007,1480,0.0000173,0.99819515,0.0000,03/10.4692/2016,2000,g  7.5,4.0
# From MPC 92274
C/2014 W3 (PANSTARRS),h,02/26.5380/2014,90.0833,286.3697,158.8492,1.005523,6.063041,2000,8.5,4.0
# From MPEC 2015-E14
P/2014 W4 (PANSTARRS),e,15.2743,33.3522,67.3820,6.588011,0.0582871,0.35318107,342.4990,03/04.0/2015,2000,g 11.0,4.0
# From MPEC 2015-E14
C/2014 W6 (Catalina),h,03/19.0171/2015,53.5647,338.1298,209.8574,1.001468,3.087543,2000,10.5,4.0
# From MPEC 2015-E14
C/2014 W7 (Christensen),e,98.3139,151.2607,33.2383,11.37259,0.0256989,0.86913704,1.6031,03/04.0/2015,2000,g 16.0,4.0
# From MPC 91616
C/2014 W8 (PANSTARRS),e,41.9402,224.8448,228.0373,194.5454,0.0003632,0.97418236,0.0000,09/10.2247/2015,2000,g 11.0,4.0
# From MPEC 2015-E14
C/2014 W9 (PANSTARRS),e,10.6305,21.2879,167.7705,11.15888,0.0264407,0.85774235,0.4308,03/04.0/2015,2000,g 16.0,4.0
# From MPEC 2015-E14
C/2014 W11 (PANSTARRS),e,12.7137,295.9629,225.6636,9.812970,0.0320629,0.65080571,356.6156,03/04.0/2015,2000,g 10.0,4.0
# From MPEC 2015-E14
P/2014 W12 (Gibbs),e,8.5131,299.2753,37.0008,3.515451,0.1495314,0.52329421,16.2800,03/04.0/2015,2000,g 15.0,4.0
# From MPEC 2015-E14
P/2014 X1 (Elenin),e,25.9712,61.5678,34.3700,6.259776,0.0629312,0.71007142,3.4774,03/04.0/2015,2000,g 15.0,4.0
# From MPC 92275
C/2014 XB8 (PANSTARRS),e,149.7664,37.4998,351.6955,360.7366,0.0001439,0.99166534,0.0000,04/06.4824/2015,2000,g 13.5,4.0
# From MPEC 2015-E14
C/2014 Y1 (PANSTARRS),h,01/17.7064/2016,14.9202,19.5399,182.2664,1.001880,2.240390,2000,9.5,4.0
# From MPEC 2015-E14
C/2015 A1 (PANSTARRS),e,80.3683,341.0904,244.8754,20.23428,0.0108286,0.90137333,359.9021,03/04.0/2015,2000,g 14.5,4.0
# From MPC 92275
C/2015 A2 (PANSTARRS),p,08/06.8226/2015,109.1054,209.4336,5.328145,258.4985,2000,10.5,4.0
# From MPC 92275
P/2015 A3 (PANSTARRS),e,172.5199,277.0965,249.2767,7.852882,0.0447879,0.85282362,0.4260,03/04.0/2015,2000,g 20.0,4.0
# From MPEC 2015-E14
C/2015 B1 (PANSTARRS),e,18.0005,353.3662,187.3138,9.677662,0.0327377,0.38204841,353.8531,03/04.0/2015,2000,g  8.5,4.0
# From MPEC 2015-E14
C/2015 B2 (PANSTARRS),h,05/06.4743/2016,105.0787,341.8939,284.7339,1.000085,3.370554,2000,9.5,4.0
# From MPEC 2015-E14
P/2015 C1 (TOTAS-Gibbs),e,13.8846,348.8545,178.4756,6.614894,0.0579322,0.56263011,356.6095,03/04.0/2015,2000,g 12.5,4.0
# From MPEC 2015-E14
C/2015 C2 (SWAN),e,94.6959,49.6190,334.2786,35.10053,0.0047395,0.97980431,0.0000,03/04.6451/2015,2000,g 14.0,4.0
# From MPEC 2015-D73
C/2015 D1 (SOHO),p,02/19.7471/2015,70.2855,234.7391,0.028115,96.0501,2000,9.0,4.0
# From MPEC 2015-DB1
C/2015 D2 (PANSTARRS),e,31.6404,163.0153,292.5197,12.94633,0.0211585,0.56670694,359.9882,10/06.0/2013,2000,g  8.0,4.0
# From MPEC 2015-DB2
C/2015 D3 (PANSTARRS),p,06/10.1416/2016,128.2768,5.6245,8.035665,157.1038,2000,5.5,4.0
# From MPEC 2015-E08
C/2015 D4 (Borisov),p,10/31.0668/2014,77.2920,312.7192,0.810813,305.6626,2000,12.0,4.0
# From MPEC 2015-E14
C/2015 D5 (Kowalski),p,06/15.1169/2015,15.5233,133.7188,2.268216,59.2514,2000,9.0,4.0
